{
    "links": {
        "self": "http://www.neowsapp.com/rest/v1/neo/3609845?api_key=iIulBulltgU6a56xZRHN4H3l9WmuAYTsLGpBGhQ2"
    },
    "id": "3609845",
    "neo_reference_id": "3609845",
    "name": "(2012 TR20)",
    "designation": "2012 TR20",
    "nasa_jpl_url": "http://ssd.jpl.nasa.gov/sbdb.cgi?sstr=3609845",
    "absolute_magnitude_h": 24.3,
    "estimated_diameter": {
        "kilometers": {
            "estimated_diameter_min": 0.0366906138,
            "estimated_diameter_max": 0.0820427065
        },
        "meters": {
            "estimated_diameter_min": 36.6906137531,
            "estimated_diameter_max": 82.0427064882
        },
        "miles": {
            "estimated_diameter_min": 0.0227984834,
            "estimated_diameter_max": 0.0509789586
        },
        "feet": {
            "estimated_diameter_min": 120.3760332259,
            "estimated_diameter_max": 269.1689931548
        }
    },
    "is_potentially_hazardous_asteroid": false,
    "close_approach_data": [
        {
            "close_approach_date": "2012-10-05",
            "close_approach_date_full": "2012-Oct-05 23:05",
            "epoch_date_close_approach": 1349478300000,
            "relative_velocity": {
                "kilometers_per_second": "10.8162597605",
                "kilometers_per_hour": "38938.5351379516",
                "miles_per_hour": "24194.8914583566"
            },
            "miss_distance": {
                "astronomical": "0.0477774222",
                "lunar": "18.5854172358",
                "kilometers": "7147400.595210714",
                "miles": "4441188.7892032932"
            },
            "orbiting_body": "Earth"
        }
    ],
    "orbital_data": {
        "orbit_id": "9",
        "orbit_determination_date": "2017-04-06 08:48:44",
        "first_observation_date": "2012-10-08",
        "last_observation_date": "2012-10-19",
        "data_arc_in_days": 11,
        "observations_used": 38,
        "orbit_uncertainty": "8",
        "minimum_orbit_intersection": ".0469364",
        "jupiter_tisserand_invariant": "3.218",
        "epoch_osculation": "2456211.5",
        "eccentricity": ".5737852737320749",
        "semi_major_axis": "2.44122409770859",
        "inclination": "14.3515024462137",
        "ascending_node_longitude": "196.8736717210235",
        "orbital_period": "1393.188558936785",
        "perihelion_distance": "1.040485660563529",
        "perihelion_argument": "168.7240088611791",
        "aphelion_distance": "3.84196253485365",
        "perihelion_time": "2456199.818594900896",
        "mean_anomaly": "3.01847571795072",
        "mean_motion": ".258400054817228",
        "equinox": "J2000",
        "orbit_class": {
            "orbit_class_type": "AMO",
            "orbit_class_description": "Near-Earth asteroid orbits similar to that of 1221 Amor",
            "orbit_class_range": "1.017 AU < q (perihelion) < 1.3 AU"
        }
    },
    "is_sentry_object": false
}